{
	"item":[
		{
		"place":"鹿児島県",
		"nameJa":"宮之浦岳",
		"nameEn":"MIYANOURADAKE",
		"height":"1936",
		"mapN":"N 30゜20'10.00",
		"mapE":"E 130゜30'15.00",
		"lat":"30.201000",
		"lng":"130.301500"
		},
		
		{
		"place":"鹿児島県",
		"nameJa":"開聞岳",
		"nameEn":"KAIMONDAKE",
		"height":"922",
		"mapN":"N 31゜10'48.70",
		"mapE":"E 130゜31'41.90",
		"lat":"31.104870",
		"lng":"130.314190"
		},
		
		{
		"place":"宮崎県・鹿児島県",
		"nameJa":"霧島山",
		"nameEn":"KIRISHIMAYAMA",
		"height":"1700",
		"mapN":"N 31゜91'70.74",
		"mapE":"E 130゜88'00.7",
		"lat":"31.917074",
		"lng":"130.88007"
		},
		
		{
		"place":"熊本県",
		"nameJa":"阿蘇山",
		"nameEn":"ASOSAN",
		"height":"1592",
		"mapN":"N 32゜53'03.10",
		"mapE":"E 131゜06'14.50",
		"lat":"32.530310",
		"lng":"131.061450"
		},
		
		{
		"place":"大分、宮崎、熊本県",
		"nameJa":"祖母山",
		"nameEn":"SOBOSAN",
		"height":"1756",
		"mapN":"N 32゜49'41.20",
		"mapE":"E 131゜20'49.40",
		"lat":"32.494120",
		"lng":"131.204940"
		},
		
		{
		"place":"大分県",
		"nameJa":"九重山",
		"nameEn":"KUJYUSAN",
		"height":"1787",
		"mapN":"N 33゜04'56.10",
		"mapE":"E 131゜14'27.40",
		"lat":"33.045610",
		"lng":"131.142740"
		},
		
		{
		"place":"愛媛県",
		"nameJa":"石鎚山",
		"nameEn":"ISHIZUCHISAN",
		"height":"1955",
		"mapN":"N 33゜46'04.00",
		"mapE":"E 133゜06'53.70",
		"lat":"33.460400",
		"lng":"133.065370"
		},
		
		{
		"place":"徳島、高知県",
		"nameJa":"剣山",
		"nameEn":"TSURUGISAN",
		"height":"1955",
		"mapN":"N 33゜51'13.00",
		"mapE":"E 134゜05'39.40",
		"lat":"33.511300",
		"lng":"134.053940"
		},
		
		{
		"place":"鳥取県",
		"nameJa":"大山",
		"nameEn":"DAISEN",
		"height":"1709",
		"mapN":"N 35゜22'16.30",
		"mapE":"E 133゜32'46.50",
		"lat":"35.221630",
		"lng":"133.324650"
		},
		
		{
		"place":"奈良県",
		"nameJa":"大峰山",
		"nameEn":"OMINESAN",
		"height":"1915",
		"mapN":"N 34゜10'24.90",
		"mapE":"E 135゜54'26.80",
		"lat":"34.102490",
		"lng":"135.542680"
		},
		
		{
		"place":"奈良、三重県",
		"nameJa":"大台ケ原山",
		"nameEn":"ODAIGAHARAYAMA",
		"height":"1695",
		"mapN":"N 34゜11'07.00",
		"mapE":"E 136゜06'32.70",
		"lat":"34.110700",
		"lng":"136.063270"
		},
		
		{
		"place":"滋賀県",
		"nameJa":"伊吹山",
		"nameEn":"IBUKIYAMA",
		"height":"1377",
		"mapN":"N 35゜25'04.50",
		"mapE":"E 136゜24'22.50",
		"lat":"35.250450",
		"lng":"136.242250"
		},
		
		{
		"place":"福井県",
		"nameJa":"荒島岳",
		"nameEn":"ARASHIMADAKE",
		"height":"1524",
		"mapN":"N 35゜56'03.30",
		"mapE":"E 136゜36'04.40",
		"lat":"35.560330",
		"lng":"136.360440"
		},
		
		{
		"place":"石川・岐阜・福井県",
		"nameJa":"白山",
		"nameEn":"HAKUSAN",
		"height":"2702",
		"mapN":"N 36゜09'18.20",
		"mapE":"E 136゜46'17.30",
		"lat":"36.091820",
		"lng":"136.461730"
		},
		
		{
		"place":"静岡・長野県",
		"nameJa":"光岳",
		"nameEn":"TEKARIDAKE",
		"height":"2591",
		"mapN":"N 35゜20'17.70",
		"mapE":"E 138゜05'01.99",
		"lat":"35.201770",
		"lng":"138.050199"
		},
		
		{
		"place":"静岡・長野県",
		"nameJa":"聖岳",
		"nameEn":"HIJIRIDAKE",
		"height":"3013",
		"mapN":"N 35゜25'21.60",
		"mapE":"E 138゜08'22.89",
		"lat":"35.252160",
		"lng":"138.082289"
		},
		
		{
		"place":"静岡・長野県",
		"nameJa":"赤石岳",
		"nameEn":"AKAISHIDAKE",
		"height":"3120",
		"mapN":"N 35゜27'40.61",
		"mapE":"E 138゜09'26.89",
		"lat":"35.274061",
		"lng":"138.092689"
		},
		
		{
		"place":"静岡・長野県",
		"nameJa":"悪沢岳",
		"nameEn":"WARUSAWADAKE",
		"height":"3141",
		"mapN":"N 35゜30'02.60",
		"mapE":"E 138゜10'56.90",
		"lat":"35.300260",
		"lng":"138.105690"
		},
		
		{
		"place":"長野・静岡県",
		"nameJa":"塩見岳",
		"nameEn":"SHIOMIDAKE",
		"height":"3047",
		"mapN":"N 35゜34'25.60",
		"mapE":"E 138゜10'58.90",
		"lat":"35.312560",
		"lng":"138.105890"
		},
		
		{
		"place":"山梨・静岡・長野県",
		"nameJa":"間ノ岳",
		"nameEn":"AINODAKE",
		"height":"2191",
		"mapN":"N 35゜38'45.61",
		"mapE":"E 138゜13'41.89",
		"lat":"35.384561",
		"lng":"138.134189"
		},
		
		{
		"place":"山梨県",
		"nameJa":"北岳",
		"nameEn":"ENASAN",
		"height":"3192",
		"mapN":"N 35゜40'28.51",
		"mapE":"E 138゜14'19.90",
		"lat":"35.402851",
		"lng":"138.141990"
		},
		
		{
		"place":"山梨県",
		"nameJa":"鳳凰山",
		"nameEn":"HOOZAN",
		"height":"2840",
		"mapN":"N 35゜42'06.50",
		"mapE":"E 138゜18'16.90",
		"lat":"35.420650",
		"lng":"138.181690"
		},
		
		{
		"place":"長野・山梨県",
		"nameJa":"仙丈ケ岳",
		"nameEn":"SENJYOGATAKE",
		"height":"3033",
		"mapN":"N 35゜43'12.50",
		"mapE":"E 138゜11'00.90",
		"lat":"35.431250",
		"lng":"138.110090"
		},
		
		{
		"place":"長野・山梨県",
		"nameJa":"甲斐駒ケ岳",
		"nameEn":"KAIKOMAGADAKE",
		"height":"2967",
		"mapN":"N 35゜45'28.50",
		"mapE":"E 138゜14'11.90",
		"lat":"35.452850",
		"lng":"138.141190"
		},
		
		{
		"place":"岐阜・長野県",
		"nameJa":"恵那山",
		"nameEn":"ENASAN",
		"height":"2191",
		"mapN":"N 35゜26'36.60",
		"mapE":"E 137゜35'50.10",
		"lat":"35.263660",
		"lng":"137.355010"
		},
		
		{
		"place":"長野県",
		"nameJa":"空木岳",
		"nameEn":"UTSUGIDAKE",
		"height":"2864",
		"mapN":"N 35゜43'08.50",
		"mapE":"E 137゜49'02.00",
		"lat":"35.430850",
		"lng":"137.490200"
		},
		
		{
		"place":"長野県",
		"nameJa":"木曽駒ケ岳",
		"nameEn":"KISOKOMAGADAKE",
		"height":"2956",
		"mapN":"N 35゜47'10.50",
		"mapE":"E 137゜48'28.00",
		"lat":"35.471050",
		"lng":"137.482800"
		},
		
		{
		"place":"長野・岐阜県",
		"nameJa":"御嶽山",
		"nameEn":"ONTAKESAN",
		"height":"3067",
		"mapN":"N 35゜53'34.40",
		"mapE":"E 137゜28'49.10",
		"lat":"35.533440",
		"lng":"137.284910"
		},
		
		{
		"place":"長野・山梨県",
		"nameJa":"八ケ岳",
		"nameEn":"YATSUGATAKE",
		"height":"2899",
		"mapN":"N 35゜58'14.40",
		"mapE":"E 138゜22'11.80",
		"lat":"35.581440",
		"lng":"138.221180"
		},
		
		{
		"place":"長野県",
		"nameJa":"蓼科山",
		"nameEn":"TATESHINAYAMA",
		"height":"2530",
		"mapN":"N 36゜06'13.40",
		"mapE":"E 138゜17'41.80",
		"lat":"36.061340",
		"lng":"138.174180"
		},
		
		{
		"place":"長野県",
		"nameJa":"霧ケ峰",
		"nameEn":"KIRIGAMINE",
		"height":"1925",
		"mapN":"N 36゜06'10.30",
		"mapE":"E 138゜11'47.80",
		"lat":"36.061030",
		"lng":"138.114780"
		},
		
		{
		"place":"長野県",
		"nameJa":"美ケ原",
		"nameEn":"UTSUKUSHIGAHARA",
		"height":"2034",
		"mapN":"N 36゜13'33.30",
		"mapE":"E 138゜06'26.80",
		"lat":"36.133330",
		"lng":"138.062680"
		},
		
		{
		"place":"岐阜・長野県",
		"nameJa":"乗鞍岳",
		"nameEn":"NORIKURADAKE",
		"height":"3026",
		"mapN":"N 36゜06'23.30",
		"mapE":"E 137゜33'13.00",
		"lat":"36.062330",
		"lng":"137.331300"
		},
		
		{
		"place":"長野・岐阜県",
		"nameJa":"焼岳",
		"nameEn":"YAKEDAKE",
		"height":"2444",
		"mapN":"N 36゜13'46.92",
		"mapE":"E 137゜35'22.75",
		"lat":"36.134692",
		"lng":"137.352275"
		},
		
		{
		"place":"岐阜県",
		"nameJa":"笠ケ岳",
		"nameEn":"KASAGATAKE",
		"height":"2897",
		"mapN":"N 36゜18'56.20",
		"mapE":"E 137゜33'00.99",
		"lat":"36.185620",
		"lng":"137.330099"
		},
		
		{
		"place":"長野県",
		"nameJa":"常念岳",
		"nameEn":"JYONENDAKE",
		"height":"2857",
		"mapN":"N 36゜19'32.20",
		"mapE":"E 137゜43'39.00",
		"lat":"36.193220",
		"lng":"137.433900"
		},
		
		{
		"place":"長野・岐阜県",
		"nameJa":"穂高岳",
		"nameEn":"HOTAKADAKE",
		"height":"3190",
		"mapN":"N 36゜17'21.20",
		"mapE":"E 137゜38'53.00",
		"lat":"36.172120",
		"lng":"137.385300"
		},
		
		{
		"place":"長野・岐阜県",
		"nameJa":"槍ケ岳",
		"nameEn":"YARIGATAKE",
		"height":"3180",
		"mapN":"N 36゜20'31.20",
		"mapE":"E 137゜38'51.99",
		"lat":"36.203120",
		"lng":"137.385199"
		},
		
		{
		"place":"長野・岐阜・富山県",
		"nameJa":"鷲羽岳",
		"nameEn":"WASHIBADAKE",
		"height":"2924",
		"mapN":"N 36゜24'11.10",
		"mapE":"E 137゜36'19.00",
		"lat":"36.241110",
		"lng":"137.361900"
		},
		
		{
		"place":"長野・岐阜・富山県",
		"nameJa":"水晶岳",
		"nameEn":"SUISHODAKE",
		"height":"2978",
		"mapN":"N 36゜25'35.10",
		"mapE":"E 137゜36'10.00",
		"lat":"36.253510",
		"lng":"137.361000"
		},
		
		{
		"place":"岐阜・富山県",
		"nameJa":"黒部五郎岳",
		"nameEn":"KUROBEGORODAKE",
		"height":"2840",
		"mapN":"N 36゜23'33.10",
		"mapE":"E 137゜32'24.00",
		"lat":"36.233310",
		"lng":"137.322400"
		},
		
		{
		"place":"富山・岐阜県",
		"nameJa":"薬師岳",
		"nameEn":"YAKUSHIDAKE",
		"height":"2926",
		"mapN":"N 36゜28'08.10",
		"mapE":"E 137゜32'41.00",
		"lat":"36.280810",
		"lng":"137.324100"
		},
		
		{
		"place":"富山県",
		"nameJa":"立山",
		"nameEn":"TATEYAMA",
		"height":"3015",
		"mapN":"N 36゜34'33.10",
		"mapE":"E 137゜37'11.00",
		"lat":"36.343310",
		"lng":"137.371100"
		},
		
		{
		"place":"富山県",
		"nameJa":"剱岳",
		"nameEn":"TSURUGIDAKE",
		"height":"2999",
		"mapN":"N 36゜37'24.10",
		"mapE":"E 137゜37'02.00",
		"lat":"36.372410",
		"lng":"137.370200"
		},
		
		{
		"place":"長野・富山県",
		"nameJa":"鹿島槍ケ岳",
		"nameEn":"KASHIMAYARIGATAKE",
		"height":"2890",
		"mapN":"N 36゜37'28.10",
		"mapE":"E 137゜44'48.90",
		"lat":"36.372810",
		"lng":"137.444890"
		},
		
		{
		"place":"長野・富山県",
		"nameJa":"五竜岳",
		"nameEn":"GORYUDAKE",
		"height":"2814",
		"mapN":"N 36゜39'30.10",
		"mapE":"E 137゜45'09.90",
		"lat":"36.393010",
		"lng":"137.450990"
		},
		
		{
		"place":"長野・新潟・富山県",
		"nameJa":"白馬岳",
		"nameEn":"SHIROUMADAKE",
		"height":"2932",
		"mapN":"N 36゜45'31.00",
		"mapE":"E 137゜45'30.90",
		"lat":"36.453100",
		"lng":"137.453090"
		},
		
		{
		"place":"静岡県",
		"nameJa":"天城山",
		"nameEn":"AMAGISAN",
		"height":"1406",
		"mapN":"N 34゜51'45.90",
		"mapE":"E 139゜00'06.70",
		"lat":"34.514590",
		"lng":"139.000670"
		},
		
		{
		"place":"山梨・静岡県",
		"nameJa":"富士山",
		"nameEn":"FUJISAN",
		"height":"3776",
		"mapN":"N 35゜21'38.70",
		"mapE":"E 138゜43'38.70",
		"lat":"35.213870",
		"lng":"138.433870"
		},
		
		{
		"place":"神奈川県",
		"nameJa":"丹沢",
		"nameEn":"TANZAWA",
		"height":"1567",
		"mapN":"N 35゜28'27.70",
		"mapE":"E 139゜09'45.60",
		"lat":"35.282770",
		"lng":"139.094560"
		},
		
		{
		"place":"山梨県",
		"nameJa":"大菩薩嶺",
		"nameEn":"DAIBOSATSUREI",
		"height":"2057",
		"mapN":"N 35゜44'55.60",
		"mapE":"E 138゜50'43.70",
		"lat":"35.445560",
		"lng":"138.504370"
		},
		
		{
		"place":"山梨・埼玉県・東京都",
		"nameJa":"雲取山",
		"nameEn":"KUMOTORIYAMA",
		"height":"2017",
		"mapN":"N 35゜51'19.50",
		"mapE":"E 138゜56'37.60",
		"lat":"35.511950",
		"lng":"138.563760"
		},
		
		{
		"place":"長野・山梨県",
		"nameJa":"瑞牆山",
		"nameEn":"MIZUGAKIYAMA",
		"height":"2230",
		"mapN":"N 35゜53'36.50",
		"mapE":"E 138゜35'31.70",
		"lat":"35.533650",
		"lng":"138.353170"
		},
		
		{
		"place":"長野・山梨県",
		"nameJa":"金峰山",
		"nameEn":"KINPUSAN",
		"height":"2595",
		"mapN":"N 35゜52'17.50",
		"mapE":"E 138゜37'30.70",
		"lat":"35.521750",
		"lng":"138.373070"
		},
		
		{
		"place":"長野・埼玉・山梨県",
		"nameJa":"甲武信岳",
		"nameEn":"KOBUSHIDAKE",
		"height":"2475",
		"mapN":"N 35゜54'32.50",
		"mapE":"E 138゜43'43.70",
		"lat":"35.543250",
		"lng":"138.434370"
		},
		
		{
		"place":"埼玉県",
		"nameJa":"両神山",
		"nameEn":"RYOKAMISAN",
		"height":"1723",
		"mapN":"N 36゜01'24.40",
		"mapE":"E 138゜50'28.60",
		"lat":"36.012440",
		"lng":"138.502860"
		},
		
		{
		"place":"長野県",
		"nameJa":"浅間山",
		"nameEn":"ASAMAYAMA",
		"height":"2568",
		"mapN":"N 36゜24'23.20",
		"mapE":"E 138゜31'22.70",
		"lat":"36.242320",
		"lng":"138.312270"
		},
		
		{
		"place":"長野・群馬県",
		"nameJa":"四阿山",
		"nameEn":"AZUMAYASAN",
		"height":"2354",
		"mapN":"N 36゜32'30.20",
		"mapE":"E 138゜24'46.70",
		"lat":"36.323020",
		"lng":"138.244670"
		},
		
		{
		"place":"群馬県",
		"nameJa":"草津白根山",
		"nameEn":"KUSATSUSHIRANESAN",
		"height":"2165",
		"mapN":"N 36゜37'06.13",
		"mapE":"E 138゜31'39.76",
		"lat":"36.370613",
		"lng":"138.313976"
		},
		
		{
		"place":"長野県",
		"nameJa":"高妻山",
		"nameEn":"TAKATSUMAYAMA",
		"height":"2353",
		"mapN":"N 36゜48'00.00",
		"mapE":"E 138゜03'06.80",
		"lat":"36.480000",
		"lng":"138.030680"
		},
		
		{
		"place":"新潟・長野県",
		"nameJa":"火打山",
		"nameEn":"HIUCHIYAMA",
		"height":"2462",
		"mapN":"N 36゜55'22.00",
		"mapE":"E 138゜04'04.80",
		"lat":"36.552200",
		"lng":"138.040480"
		},
		
		{
		"place":"新潟県",
		"nameJa":"妙高山",
		"nameEn":"MYOKOSAN",
		"height":"2446",
		"mapN":"N 36゜53'29.00",
		"mapE":"E 138゜06'48.80",
		"lat":"36.532900",
		"lng":"138.064880"
		},
		
		{
		"place":"長野・新潟県",
		"nameJa":"雨飾山",
		"nameEn":"AMAKAZARIYAMA",
		"height":"1963",
		"mapN":"N 36゜54'07.00",
		"mapE":"E 137゜57'45.80",
		"lat":"36.540700",
		"lng":"137.574580"
		},
		
		{
		"place":"新潟・長野県",
		"nameJa":"苗場山",
		"nameEn":"NAEBASAN",
		"height":"2145",
		"mapN":"N 36゜40'45.10",
		"mapE":"E 138゜41'25.60",
		"lat":"36.404510",
		"lng":"138.412560"
		},
		
		{
		"place":"新潟・群馬県",
		"nameJa":"谷川岳",
		"nameEn":"TANIGAWADAKE",
		"height":"1963",
		"mapN":"N 36゜50'14.10",
		"mapE":"E 138゜55'48.50",
		"lat":"36.501410",
		"lng":"138.554850"
		},
		
		{
		"place":"新潟県",
		"nameJa":"巻機山",
		"nameEn":"MAKIHATAYAMA",
		"height":"1967",
		"mapN":"N 36゜58'43.00",
		"mapE":"E 138゜57'51.50",
		"lat":"36.584300",
		"lng":"138.575150"
		},
		
		{
		"place":"福島県",
		"nameJa":"平ケ岳",
		"nameEn":"HIRAGADAKE",
		"height":"2141",
		"mapN":"N 37゜00'07.00",
		"mapE":"E 139゜10'15.40",
		"lat":"37.000700",
		"lng":"139.101540"
		},
		
		{
		"place":"新潟県",
		"nameJa":"越後駒ケ岳",
		"nameEn":"ECHIGOKOMAGADAKE",
		"height":"2003",
		"mapN":"N 37゜07'25.00",
		"mapE":"E 139゜04'30.40",
		"lat":"37.072500",
		"lng":"139.043040"
		},
		
		{
		"place":"群馬・栃木県",
		"nameJa":"皇海山",
		"nameEn":"SUKAISAN",
		"height":"2144",
		"mapN":"N 36゜41'23.20",
		"mapE":"E 139゜20'13.40",
		"lat":"36.412320",
		"lng":"139.201340"
		},
		
		{
		"place":"群馬・栃木県",
		"nameJa":"日光白根山",
		"nameEn":"NIKKOSHIRANESAN",
		"height":"2578",
		"mapN":"N 36゜47'55.10",
		"mapE":"E 139゜22'33.30",
		"lat":"36.475510",
		"lng":"139.223330"
		},
		
		{
		"place":"栃木県",
		"nameJa":"男体山",
		"nameEn":"NANTAISAN",
		"height":"2486",
		"mapN":"N 36゜45'54.20",
		"mapE":"E 139゜29'27.30",
		"lat":"36.455420",
		"lng":"139.292730"
		},
		
		{
		"place":"群馬県",
		"nameJa":"赤城山",
		"nameEn":"AKAGIYAMA",
		"height":"1828",
		"mapN":"N 36゜33'37.20",
		"mapE":"E 139゜11'35.40",
		"lat":"36.333720",
		"lng":"139.113540"
		},
		
		{
		"place":"群馬県",
		"nameJa":"武尊山",
		"nameEn":"HOTKAYAMA",
		"height":"2158",
		"mapN":"N 36゜48'19.10",
		"mapE":"E 139゜07'57.40",
		"lat":"36.481910",
		"lng":"139.075740"
		},
		
		{
		"place":"群馬県",
		"nameJa":"至仏山",
		"nameEn":"SHIBUTSUZAN",
		"height":"2228",
		"mapN":"N 36゜54'12.10",
		"mapE":"E 139゜10'23.40",
		"lat":"36.541210",
		"lng":"139.102340"
		},
		
		{
		"place":"群馬・福島県",
		"nameJa":"燧ケ岳",
		"nameEn":"HIUCHIGADAKE",
		"height":"2356",
		"mapN":"N 36゜57'18.10",
		"mapE":"E 139゜17'07.40",
		"lat":"36.571810",
		"lng":"139.170740"
		},
		
		{
		"place":"茨城県",
		"nameJa":"筑波山",
		"nameEn":"TSUKUBASAN",
		"height":"877",
		"mapN":"N 36゜13'31.40",
		"mapE":"E 140゜06'24.20",
		"lat":"36.133140",
		"lng":"140.062420"
		},
		
		{
		"place":"栃木・福島県",
		"nameJa":"那須岳",
		"nameEn":"NASUDAKE",
		"height":"1915",
		"mapN":"N 37゜07'29.10",
		"mapE":"E 139゜57'46.10",
		"lat":"37.072910",
		"lng":"139.574610"
		},
		
		{
		"place":"福島県",
		"nameJa":"会津駒ケ岳",
		"nameEn":"AIZUKOMAGATAKE",
		"height":"2132",
		"mapN":"N 37゜02'51.00",
		"mapE":"E 139゜21'13.30",
		"lat":"37.025100",
		"lng":"139.211330"
		},
		
		{
		"place":"福島県",
		"nameJa":"磐梯山",
		"nameEn":"BANDAISAN",
		"height":"1819",
		"mapN":"N 37゜36'03.90",
		"mapE":"E 140゜04'20.00",
		"lat":"37.360390",
		"lng":"140.042000"
		},
		
		{
		"place":"福島県",
		"nameJa":"安達太良山",
		"nameEn":"ADATARAYAMA",
		"height":"1700",
		"mapN":"N 37゜37'15.90",
		"mapE":"E 140゜17'28.30",
		"lat":"37.371590",
		"lng":"140.172830"
		},
		
		{
		"place":"山形・福島県",
		"nameJa":"吾妻山",
		"nameEn":"AZUMAYAMA",
		"height":"2035",
		"mapN":"N 37゜44'17.80",
		"mapE":"E 140゜08'27.00",
		"lat":"37.441780",
		"lng":"140.082700"
		},
		
		{
		"place":"山形・新潟・福島県",
		"nameJa":"飯豊連峰",
		"nameEn":"IIDERENPO",
		"height":"2105",
		"mapN":"N 37゜51'17.70",
		"mapE":"E 139゜42'25.10",
		"lat":"37.511770",
		"lng":"139.422510"
		},
		
		{
		"place":"山形・宮城県",
		"nameJa":"蔵王山",
		"nameEn":"ZAOZAN",
		"height":"1841",
		"mapN":"N 38゜08'36.70",
		"mapE":"E 140゜26'23.80",
		"lat":"38.083670",
		"lng":"140.262380"
		},
		
		{
		"place":"山形・新潟県",
		"nameJa":"朝日連峰",
		"nameEn":"ASAHIRENPO",
		"height":"1870",
		"mapN":"N 38゜15'37.60",
		"mapE":"E 139゜55'19.90",
		"lat":"38.153760",
		"lng":"139.551990"
		},
		
		{
		"place":"山形県",
		"nameJa":"月山",
		"nameEn":"GASSAN",
		"height":"1980",
		"mapN":"N 38゜32'56.50",
		"mapE":"E 140゜01'36.90",
		"lat":"38.325650",
		"lng":"140.013690"
		},
		
		{
		"place":"秋田・山形県",
		"nameJa":"鳥海山",
		"nameEn":"CHOKAISAN",
		"height":"2236",
		"mapN":"N 39゜05'57.30",
		"mapE":"E 140゜02'55.80",
		"lat":"39.055730",
		"lng":"140.025580"
		},
		
		{
		"place":"岩手県",
		"nameJa":"早池峰山",
		"nameEn":"HAYACHINESAN",
		"height":"1917",
		"mapN":"N 39゜33'31.20",
		"mapE":"E 141゜29'19.20",
		"lat":"39.333120",
		"lng":"141.291920"
		},
		
		{
		"place":"岩手県",
		"nameJa":"岩手山",
		"nameEn":"IWATESAN",
		"height":"2038",
		"mapN":"N 39゜51'09.00",
		"mapE":"E 141゜00'03.40",
		"lat":"39.510900",
		"lng":"141.000340"
		},
		
		{
		"place":"秋田・岩手県",
		"nameJa":"八幡平",
		"nameEn":"HACHIMANTAI",
		"height":"1613",
		"mapN":"N 39゜57'28.00",
		"mapE":"E 140゜51'14.40",
		"lat":"39.572800",
		"lng":"140.511440"
		},
		
		{
		"place":"青森県",
		"nameJa":"八甲田山",
		"nameEn":"SHIRIBESHIYAMA",
		"height":"1585",
		"mapN":"N 40゜39'31.70",
		"mapE":"E 140゜52'38.30",
		"lat":"40.393170",
		"lng":"140.523830"
		},
		
		{
		"place":"青森県",
		"nameJa":"岩木山",
		"nameEn":"IWAKISAN",
		"height":"1625",
		"mapN":"N 40゜39'21.60",
		"mapE":"E 140゜18'11.50",
		"lat":"40.392160",
		"lng":"140.181150"
		},
		
		{
		"place":"北海道",
		"nameJa":"後方羊蹄山",
		"nameEn":"SHIRIBESHIYAMA",
		"height":"1893",
		"mapN":"N 42゜49'35.80",
		"mapE":"E 140゜48'40.90",
		"lat":"42.826259",
		"lng":"140.793706"
		},
		
		{
		"place":"北海道",
		"nameJa":"幌尻岳",
		"nameEn":"BOROSHIRIDAKE",
		"height":"2057",
		"mapN":"N 42゜43'10.10",
		"mapE":"E 142゜40'58.40",
		"lat":"42.431010",
		"lng":"142.405840"
		},
		
		{
		"place":"北海道",
		"nameJa":"十勝岳",
		"nameEn":"TOKACHIDAKE",
		"height":"2077",
		"mapN":"N 43゜25'04.80",
		"mapE":"E 142゜41'11.20",
		"lat":"43.250480",
		"lng":"142.411120"
		},
		
		{
		"place":"北海道",
		"nameJa":"トムラウシ山",
		"nameEn":"TOMURAUSHIYAMA",
		"height":"2141",
		"mapN":"N 43゜31'37.80",
		"mapE":"E 142゜50'55.20",
		"lat":"43.313780",
		"lng":"142.505520"
		},
		
		{
		"place":"北海道",
		"nameJa":"大雪山",
		"nameEn":"DAISETSUZAN",
		"height":"2290",
		"mapN":"N 43゜39'48.80",
		"mapE":"E 142゜51'15.10",
		"lat":"43.394880",
		"lng":"142.511510"
		},
		
		{
		"place":"北海道",
		"nameJa":"阿寒岳",
		"nameEn":"AKANDAKE",
		"height":"1499",
		"mapN":"N 43゜23'12.00",
		"mapE":"E 144゜00'31.80",
		"lat":"43.231200",
		"lng":"144.003180"
		},
		
		{
		"place":"北海道",
		"nameJa":"斜里岳",
		"nameEn":"SHARIDAKE",
		"height":"1547",
		"mapN":"N 43゜45'55.90",
		"mapE":"E 144゜43'03.60",
		"lat":"43.455590",
		"lng":"144.430360"
		},
		
		{
		"place":"北海道",
		"nameJa":"羅臼岳",
		"nameEn":"RAUSUDAKE",
		"height":"1661",
		"mapN":"N 44゜04'32.80",
		"mapE":"E 145゜07'20.40",
		"lat":"44.043280",
		"lng":"145.072040"
		},
		
		{
		"place":"北海道",
		"nameJa":"利尻岳",
		"nameEn":"RISHIRIDAKE",
		"height":"1719",
		"mapN":"N 45゜10'42.90",
		"mapE":"E 141゜14'42.60",
		"lat":"45.104290",
		"lng":"141.144260"
		}
	]
}